#dP2019  6 29  0  0  0.00000000      96 __u+U IGS08 FIT  IAC
## 2059 518400.00000000   900.00000000 58663 0.0000000000000
+   97   C01C02C03C04C06C07C08C09C10C11C12C13C14C16E01E02E03
+        E04E05E07E08E09E11E12E13E14E15E18E19E21E24E25E26E27
+        E30E31E33E36G01G02G03G05G06G07G08G09G10G11G12G13G14
+        G15G16G17G18G19G20G21G22G23G24G25G26G27G28G29G30G31
+        G32J01J02J03J07R01R02R03R04R05R07R08R09R10R11R12R13
+        R14R15R16R17R18R19R20R21R22R23R24R26  0  0  0  0  0
++        13 12 13 13  8  9  8  8  8  7  7  8  7  8  4  5  5
++         5  4  4  4  4  4  4  4  4  4  5  5  5  4  4  4  4
++         4  4  4  5  3  3  3  3  3  3  3  3  3  3  3  3  3
++         3  3  3  3  3  3  3  3  3  3  3  3  3  3  3  3  3
++         3 10  9  9 15  5  5  5  5  5  5  5  5  5  5  5  6
++         5  5  7  5  5  6  6  5  5  5  6  8  0  0  0  0  0
%c M  cc GPS ccc cccc cccc cccc cccc ccccc ccccc ccccc ccccc
%c cc cc ccc ccc cccc cccc cccc cccc ccccc ccccc ccccc ccccc
%f  1.2500000  1.025000000  0.00000000000  0.000000000000000
%f  0.0000000  0.000000000  0.00000000000  0.000000000000000
%i    0    0    0    0      0      0      0      0         0
%i    0    0    0    0      0      0      0      0         0
/* INFORMATION & ANALYSIS CENTER (IAC)            FINAL DATA
/* S/V CLOCKS ARE ALIGNED TO GPS & GLONASS TIME RESPECTIVELY
/* USING THE BROADCAST EPHEMERIS                            
/* PCV:IGS14_2056 OL/AL:FES2004  NONE     YN ORB:CoN CLK:CoN
*  2019 06 29 20 45  0.00000000
PC01 -32315.260729  27104.308811    184.189848    775.461726
PC02   4407.746086  41908.044726  -1077.913088     65.783229
PC03 -14673.185079  39521.559861   -596.465944    644.162546
PC04 -39630.515380  14420.413481   -192.097482    315.097042
PC06 -23465.275065  32924.153873  11631.509572    584.849017
PC07  -9347.837481  33894.515026  23755.679295 999999.999999
PC08 -13440.386602  18395.756235 -35444.417099    167.265664
PC09 -10758.213256  32326.064757  24845.241813    880.128271
PC10   2922.882078  40717.440053  11529.887836   -889.866453
PC11  26759.428889  -5878.215831  -5089.402046    250.578104
PC12   9323.785145  12734.021070 -22947.903742    814.375414
PC13   1143.364378  23993.371442 -34566.883014   -809.769180
PC14  14971.207693   6765.105190  22621.982563    546.555783
PC16 -21485.160927  33486.551900  13735.459308   -903.327406
PE01   2953.512194 -22189.803754 -19361.998431   -636.683700
PE02  -2900.367532  22234.390869  19322.397466     67.067059
PE03 -13742.825036  25982.256876   3577.613146   -182.839360
PE04  -1913.172353 -22349.441357 -19299.839374   -313.111564
PE05 -21482.356716  14399.431641 -14392.807218   -470.741270
PE07  16620.877685   5558.640671  23867.411777   -216.890186
PE08   2094.681144  22219.079633  19462.565068   6331.866100
PE09 -16567.645857  -5279.051801 -23942.520605   6393.768601
PE11 -27218.622417  -7142.972696   9139.793423   5665.834891
PE12 -10558.546135 -15594.240825  22829.247047   6322.289121
PE13  27204.096227   7066.870472  -9294.053980    389.257971
PE14  21660.290471   7553.820067 -22455.240746   -624.178048
PE15  11056.202850  15391.601169 -22737.282647    905.015908
PE18 -21136.452057   1938.884589  12142.494724   -720.241692
PE19  14957.544920 -25487.813296  -1681.253849     -5.464545
PE21  16033.973454  -4231.413076 -24522.557180   -541.616326
PE24 -19590.741243 -16009.911405  15359.585872   6002.745379
PE25 -16054.580926   4182.978783  24516.810928   1757.857688
PE26  27478.390144  -5301.084387   9643.136592   4396.781230
PE27  19625.940630  16159.236810 -15165.195386    439.121872
PE30  11681.800878  27049.016188   2834.637499   4750.402916
PE31 -11700.651839 -27009.520724  -3052.429488   -466.054468
PE33  11623.744119 -14723.405331  22901.153208   -469.873485
PE36 -27451.494478   5426.686800  -9640.982343    693.604456
PG01  21339.057132  14322.596376  -7536.312228    -54.016589
PG02  -2006.574757 -16552.907882  21312.182760   -248.873081
PG03  12809.957716  18066.592739  14686.231950    183.570960
PG05  -1983.907680 -26155.036578   3265.656349      0.302870
PG06  13250.556273  -9862.816527  20846.672822    163.873150
PG07  25339.975428   6019.349801  -6111.599627    -54.423245
PG08   6116.582002  14084.361541 -21621.505206   -149.312467
PG09  21825.261691  -4283.043888  14486.127839    381.389385
PG10 -12179.936679  12538.172059 -19873.173903      0.254726
PG11  18849.849558  10943.720400 -15534.817516   -573.039020
PG12 -10197.262103 -20717.295506  13054.483000    228.530741
PG13   4493.980652 -18003.572040 -19091.995514    -56.852817
PG14 -16962.401347  18498.828854   8724.788799    -73.821747
PG15  -8759.308339 -13654.449672 -21265.082354   -304.009985
PG16   -583.682614  26134.942728   2905.776666    -52.122902
PG17  21419.597650 -15616.438461    891.174218     80.141290
PG18  14543.268044  16597.063473 -15370.362529     65.951117
PG19  18910.476661 -17281.286804   6827.503500   -300.396700
PG20 -15711.607573   2729.199690 -21348.710187    525.679301
PG21 -24242.244808   -768.929609  -9835.956302   -163.876891
PG22  11197.765101  22772.280871   8221.535478   -724.238898
PG23  14920.542570   7567.305543  21041.654823   -179.531070
PG24 -19769.072497 -14837.339338 -10309.816960    -68.137969
PG25 -15062.174794  -8069.268336  20187.802326   -769.713235
PG26  -5657.569751  22374.170240  12968.388255    239.189190
PG27  -6353.490637  19423.337846 -16908.289467   -171.263307
PG28  12554.244566 -11838.148636 -19618.781569    767.016050
PG29 -20140.921098   -174.639139  17284.342688    163.965451
PG30  21555.701255  -2526.333795 -15416.303000   -133.478848
PG31 -12304.030418  10686.933638  21047.701136     27.687183
PG32 -20391.068807  16895.705920    854.331523    -22.980791
PJ01 -21587.121790  31042.226846 -14068.761240   -280.163317
PJ02 -24605.520304  21733.749639  31266.488220     -0.688132
PJ03 -34559.905758  23378.086935   -977.512835      1.419365
PJ07 -25367.821252  33684.156810    -10.517873     -0.028240
PR01 -10978.078873  -2197.843406 -22912.215529     46.042401
PR02 -13080.628630  17731.185136 -12762.476094    375.941515
PR03  -6684.749219  24195.932365   4449.680010     -2.498376
PR04   3875.132856  16172.747161  19357.657551    311.969986
PR05  11539.801850   -351.253634  22763.163593     30.972643
PR07   6518.138317 -24196.358614  -4827.122151    -22.607997
PR08  -3352.075336 -16805.765810 -18839.388496     16.982241
PR09   8096.188201  -7700.668332 -22915.546184     77.593643
PR10  -4036.369802 -17973.514524 -17619.511386     53.282957
PR11 -15865.868635 -19913.121292   -980.168596    -71.089409
PR12 -17864.355463 -10535.666907  14888.792268     39.226197
PR13  -9255.957861   5875.364940  23015.134067    -25.415759
PR14   4268.006705  18191.909198  17386.883200     40.432753
PR15  15472.708756  20193.843389   1925.642401    102.823572
PR16  18044.708171   9981.567233 -14959.074499      8.010663
PR17  -7802.623501  11285.338606 -21509.109114    239.697510
PR18  10759.562155   8170.670185 -21641.225749     -1.493375
PR19  23354.271873   1292.302857 -10181.559423    -39.115305
PR20  22712.941631  -7305.865043   9089.729696   -382.786593
PR21   7049.507533 -11196.491989  21797.937557    -56.890256
PR22 -13239.693188  -7244.765888  20523.549043    -26.195753
PR23 -24967.808502   1783.429036   4889.255079    237.537240
PR24 -21515.954586   8392.294338 -10843.244649   -182.090223
PR26  23772.470913  -6725.584768   6304.724949    -19.746028
EOF
